{
  "type": "FeatureCollection",
  "features": [
    {
      "type": "Feature",
      "properties": {
        "norad_id": 66513,
        "name": "STARLINK-35692",
        "group": "last-30-days",
        "lat": 26.966900453507357,
        "lon": 172.76067176065976,
        "alt_km": 411.5230071849328,
        "timestamp": "2025-12-10T05:46:12.575075+00:00",
        "meta_object_name": "STARLINK-35692",
        "meta_object_id": "2025-263AE",
        "meta_epoch": "2025-12-09T20:00:01.999008",
        "meta_mean_motion": 15.50582194,
        "meta_eccentricity": 0.0001472,
        "meta_inclination": 43.0006,
        "meta_ra_of_asc_node": 142.0492,
        "meta_arg_of_pericenter": 277.8927,
        "meta_mean_anomaly": 8.9058,
        "meta_ephemeris_type": 0,
        "meta_classification_type": "U",
        "meta_norad_cat_id": 66513,
        "meta_element_set_no": 999,
        "meta_rev_at_epoch": 516,
        "meta_bstar": -0.0018953,
        "meta_mean_motion_dot": -0.00109995,
        "meta_mean_motion_ddot": 0,
        "tle_line1": "1 66513U 25263AE  25343.83335647 -.00109995  00000+0 -18953-2 0  9997",
        "tle_line2": "2 66513  43.0006 142.0492 0001472 277.8927   8.9058 15.50582194  5166"
      },
      "geometry": {
        "type": "Point",
        "coordinates": [
          172.76067176065976,
          26.966900453507357
        ]
      }
    },
    {
      "type": "Feature",
      "properties": {
        "norad_id": 66514,
        "name": "SENTINEL-6B",
        "group": "last-30-days",
        "lat": 65.77280859467947,
        "lon": -93.5575690689969,
        "alt_km": 1334.1412422589274,
        "timestamp": "2025-12-10T05:46:12.575085+00:00",
        "meta_object_name": "SENTINEL-6B",
        "meta_object_id": "2025-264A",
        "meta_epoch": "2025-12-08T23:22:28.384896",
        "meta_mean_motion": 12.84031992,
        "meta_eccentricity": 0.00210406,
        "meta_inclination": 66.0385,
        "meta_ra_of_asc_node": 170.2707,
        "meta_arg_of_pericenter": 268.23,
        "meta_mean_anomaly": 91.6307,
        "meta_ephemeris_type": 0,
        "meta_classification_type": "U",
        "meta_norad_cat_id": 66514,
        "meta_element_set_no": 999,
        "meta_rev_at_epoch": 280,
        "meta_bstar": 0.000106025,
        "meta_mean_motion_dot": -3.6e-07,
        "meta_mean_motion_ddot": 0,
        "tle_line1": "1 66514U 25264A   25342.97393964 -.00000036  00000+0  10602-3 0  9998",
        "tle_line2": "2 66514  66.0385 170.2707 0021040 268.2300  91.6307 12.84031992  2809"
      },
      "geometry": {
        "type": "Point",
        "coordinates": [
          -93.5575690689969,
          65.77280859467947
        ]
      }
    },
    {
      "type": "Feature",
      "properties": {
        "norad_id": 66516,
        "name": "STARLINK-35924",
        "group": "last-30-days",
        "lat": -19.16533642275769,
        "lon": -89.4636994353737,
        "alt_km": 416.54165762119646,
        "timestamp": "2025-12-10T05:46:12.575098+00:00",
        "meta_object_name": "STARLINK-35924",
        "meta_object_id": "2025-265A",
        "meta_epoch": "2025-12-09T20:00:01.999008",
        "meta_mean_motion": 15.50618238,
        "meta_eccentricity": 0.0001846,
        "meta_inclination": 43.0003,
        "meta_ra_of_asc_node": 71.0188,
        "meta_arg_of_pericenter": 277.7901,
        "meta_mean_anomaly": 175.911,
        "meta_ephemeris_type": 0,
        "meta_classification_type": "U",
        "meta_norad_cat_id": 66516,
        "meta_element_set_no": 999,
        "meta_rev_at_epoch": 450,
        "meta_bstar": -0.00098702,
        "meta_mean_motion_dot": -0.00057902,
        "meta_mean_motion_ddot": 0,
        "tle_line1": "1 66516U 25265A   25343.83335647 -.00057902  00000+0 -98702-3 0  9993",
        "tle_line2": "2 66516  43.0003  71.0188 0001846 277.7901 175.9110 15.50618238  4505"
      },
      "geometry": {
        "type": "Point",
        "coordinates": [
          -89.4636994353737,
          -19.16533642275769
        ]
      }
    },
    {
      "type": "Feature",
      "properties": {
        "norad_id": 66517,
        "name": "STARLINK-35937",
        "group": "last-30-days",
        "lat": -20.362443114579236,
        "lon": -87.8945947061288,
        "alt_km": 416.79144218435795,
        "timestamp": "2025-12-10T05:46:12.575108+00:00",
        "meta_object_name": "STARLINK-35937",
        "meta_object_id": "2025-265B",
        "meta_epoch": "2025-12-09T20:00:01.999008",
        "meta_mean_motion": 15.50662647,
        "meta_eccentricity": 0.0001847,
        "meta_inclination": 42.9999,
        "meta_ra_of_asc_node": 71.0153,
        "meta_arg_of_pericenter": 279.0906,
        "meta_mean_anomaly": 176.5245,
        "meta_ephemeris_type": 0,
        "meta_classification_type": "U",
        "meta_norad_cat_id": 66517,
        "meta_element_set_no": 999,
        "meta_rev_at_epoch": 452,
        "meta_bstar": -0.0031093,
        "meta_mean_motion_dot": -0.0017918,
        "meta_mean_motion_ddot": 0,
        "tle_line1": "1 66517U 25265B   25343.83335647 -.00179180  00000+0 -31093-2 0  9996",
        "tle_line2": "2 66517  42.9999  71.0153 0001847 279.0906 176.5245 15.50662647  4522"
      },
      "geometry": {
        "type": "Point",
        "coordinates": [
          -87.8945947061288,
          -20.362443114579236
        ]
      }
    },
    {
      "type": "Feature",
      "properties": {
        "norad_id": 66518,
        "name": "STARLINK-35962",
        "group": "last-30-days",
        "lat": -21.552340586246295,
        "lon": -86.29370147889969,
        "alt_km": 416.8659190598428,
        "timestamp": "2025-12-10T05:46:12.575120+00:00",
        "meta_object_name": "STARLINK-35962",
        "meta_object_id": "2025-265C",
        "meta_epoch": "2025-12-09T20:00:01.999008",
        "meta_mean_motion": 15.50655778,
        "meta_eccentricity": 0.0001911,
        "meta_inclination": 42.9998,
        "meta_ra_of_asc_node": 71.0097,
        "meta_arg_of_pericenter": 281.4537,
        "meta_mean_anomaly": 176.0776,
        "meta_ephemeris_type": 0,
        "meta_classification_type": "U",
        "meta_norad_cat_id": 66518,
        "meta_element_set_no": 999,
        "meta_rev_at_epoch": 452,
        "meta_bstar": -0.0028014,
        "meta_mean_motion_dot": -0.00161789,
        "meta_mean_motion_ddot": 0,
        "tle_line1": "1 66518U 25265C   25343.83335647 -.00161789  00000+0 -28014-2 0  9992",
        "tle_line2": "2 66518  42.9998  71.0097 0001911 281.4537 176.0776 15.50655778  4529"
      },
      "geometry": {
        "type": "Point",
        "coordinates": [
          -86.29370147889969,
          -21.552340586246295
        ]
      }
    },
    {
      "type": "Feature",
      "properties": {
        "norad_id": 66519,
        "name": "STARLINK-35931",
        "group": "last-30-days",
        "lat": -22.724511053085255,
        "lon": -84.66908351185592,
        "alt_km": 416.73458576987014,
        "timestamp": "2025-12-10T05:46:12.575130+00:00",
        "meta_object_name": "STARLINK-35931",
        "meta_object_id": "2025-265D",
        "meta_epoch": "2025-12-09T20:00:01.999008",
        "meta_mean_motion": 15.50617943,
        "meta_eccentricity": 0.0002253,
        "meta_inclination": 42.9999,
        "meta_ra_of_asc_node": 71.0045,
        "meta_arg_of_pericenter": 278.0572,
        "meta_mean_anomaly": 181.4116,
        "meta_ephemeris_type": 0,
        "meta_classification_type": "U",
        "meta_norad_cat_id": 66519,
        "meta_element_set_no": 999,
        "meta_rev_at_epoch": 452,
        "meta_bstar": -0.0018439,
        "meta_mean_motion_dot": -0.00107205,
        "meta_mean_motion_ddot": 0,
        "tle_line1": "1 66519U 25265D   25343.83335647 -.00107205  00000+0 -18439-2 0  9996",
        "tle_line2": "2 66519  42.9999  71.0045 0002253 278.0572 181.4116 15.50617943  4525"
      },
      "geometry": {
        "type": "Point",
        "coordinates": [
          -84.66908351185592,
          -22.724511053085255
        ]
      }
    },
    {
      "type": "Feature",
      "properties": {
        "norad_id": 66520,
        "name": "STARLINK-35952",
        "group": "last-30-days",
        "lat": -23.886171849675435,
        "lon": -83.00713269192865,
        "alt_km": 417.0232890324478,
        "timestamp": "2025-12-10T05:46:12.575140+00:00",
        "meta_object_name": "STARLINK-35952",
        "meta_object_id": "2025-265E",
        "meta_epoch": "2025-12-09T20:00:01.999008",
        "meta_mean_motion": 15.5065333,
        "meta_eccentricity": 0.0001815,
        "meta_inclination": 43,
        "meta_ra_of_asc_node": 70.9996,
        "meta_arg_of_pericenter": 282.7021,
        "meta_mean_anomaly": 178.6663,
        "meta_ephemeris_type": 0,
        "meta_classification_type": "U",
        "meta_norad_cat_id": 66520,
        "meta_element_set_no": 999,
        "meta_rev_at_epoch": 452,
        "meta_bstar": -0.0027678,
        "meta_mean_motion_dot": -0.00159874,
        "meta_mean_motion_ddot": 0,
        "tle_line1": "1 66520U 25265E   25343.83335647 -.00159874  00000+0 -27678-2 0  9992",
        "tle_line2": "2 66520  43.0000  70.9996 0001815 282.7021 178.6663 15.50653330  4524"
      },
      "geometry": {
        "type": "Point",
        "coordinates": [
          -83.00713269192865,
          -23.886171849675435
        ]
      }
    }
  ]
}